NORAD_CAT_ID,OBJECT_NAME,OBJECT_TYPE,EPOCH,MEAN_MOTION,ECCENTRICITY,INCLINATION,RA_OF_ASC_NODE,ARG_OF_PERICENTER,MEAN_ANOMALY,BSTAR,MEAN_MOTION_DOT,MEAN_MOTION_DDOT,TLE_LINE0,TLE_LINE1,TLE_LINE2,SEMIMAJOR_AXIS,PERIOD,APOGEE,PERIGEE,DECAYED
53574.0,STARLINK-4559,PAYLOAD,2023-10-31 14:11:42,15.08843087,0.0001533,53.2163,314.9641,92.3409,267.7758,5.522e-05,5.91e-06,0.0,0 STARLINK-4559,1 53574U 22101AZ  23304.59146219  .00000591  00000-0  55220-4 0  9992,2 53574  53.2163 314.9641 0001533  92.3409 267.7758 15.08843087 66607,6917.871,95.437,540.796,538.675,0.0
53574.0,STARLINK-4559,PAYLOAD,2023-10-31 17:22:29,15.08829547,0.0001274,53.2168,314.3708,101.8987,258.2148,-0.00015489,-2.751e-05,0.0,0 STARLINK-4559,1 53574U 22101AZ  23304.72394783 -.00002751  00000-0 -15489-3 0  9992,2 53574  53.2168 314.3708 0001274 101.8987 258.2148 15.08829547 66624,6917.912,95.438,540.659,538.896,0.0
53574.0,STARLINK-4559,PAYLOAD,2023-11-01 07:40:56,15.08846152,0.0001516,53.2162,311.6946,101.93,258.1862,0.00027834,4.145e-05,0.0,0 STARLINK-4559,1 53574U 22101AZ  23305.32010384  .00004145  00000-0  27834-3 0  9995,2 53574  53.2162 311.6946 0001516 101.9300 258.1862 15.08846152 66714,6917.862,95.437,540.775,538.678,0.0
53574.0,STARLINK-4559,PAYLOAD,2023-11-01 17:13:15,15.08844496,0.0001463,53.2162,309.9105,97.8773,262.2385,0.00027529,4.097e-05,0.0,0 STARLINK-4559,1 53574U 22101AZ  23305.71754546  .00004097  00000-0  27529-3 0  9990,2 53574  53.2162 309.9105 0001463  97.8773 262.2385 15.08844496 66770,6917.867,95.437,540.744,538.72,0.0
53574.0,STARLINK-4559,PAYLOAD,2023-11-02 04:20:58,15.08841538,0.0001718,53.2175,307.8324,101.3277,258.7908,0.00016295,2.306e-05,0.0,0 STARLINK-4559,1 53574U 22101AZ  23306.18122759  .00002306  00000-0  16295-3 0  9996,2 53574  53.2175 307.8324 0001718 101.3277 258.7908 15.08841538 66840,6917.876,95.437,540.929,538.552,0.0
53574.0,STARLINK-4559,PAYLOAD,2023-11-02 10:42:30,15.08848857,0.0001692,53.2173,306.6409,94.2163,265.9023,0.00024835,3.668e-05,0.0,0 STARLINK-4559,1 53574U 22101AZ  23306.44618423  .00003668  00000-0  24835-3 0  9994,2 53574  53.2173 306.6409 0001692  94.2163 265.9023 15.08848857 66887,6917.853,95.437,540.889,538.548,0.0
53574.0,STARLINK-4559,PAYLOAD,2023-11-02 17:04:02,15.08841837,0.0001465,53.2159,305.4468,81.7407,278.3751,7.4123e-05,8.92e-06,0.0,0 STARLINK-4559,1 53574U 22101AZ  23306.71114578  .00000892  00000-0  74123-4 0  9998,2 53574  53.2159 305.4468 0001465  81.7407 278.3751 15.08841837 66925,6917.875,95.437,540.753,538.726,0.0
53574.0,STARLINK-4559,PAYLOAD,2023-11-03 08:57:54,15.08848701,0.0001734,53.217,302.4745,81.9838,278.1351,0.00019178,2.766e-05,0.0,0 STARLINK-4559,1 53574U 22101AZ  23307.37354376  .00002766  00000-0  19178-3 0  9993,2 53574  53.2170 302.4745 0001734  81.9838 278.1351 15.08848701 67025,6917.854,95.437,540.918,538.519,0.0
53574.0,STARLINK-4559,PAYLOAD,2023-11-03 16:54:49,15.0884433,0.0001829,53.217,300.9882,86.1801,273.94,1.7734e-05,-6e-08,0.0,0 STARLINK-4559,1 53574U 22101AZ  23307.70474503 -.00000006  00000-0  17734-4 0  9998,2 53574  53.2170 300.9882 0001829  86.1801 273.9400 15.08844330 67079,6917.867,95.437,540.997,538.467,0.0
53574.0,STARLINK-4559,PAYLOAD,2023-11-04 05:37:55,15.08835425,0.0001354,53.2154,298.6105,91.4098,268.7049,-1.5057e-06,-3.12e-06,0.0,0 STARLINK-4559,1 53574U 22101AZ  23308.23466877 -.00000312  00000-0 -15057-5 0  9990,2 53574  53.2154 298.6105 0001354  91.4098 268.7049 15.08835425 67157,6917.894,95.438,540.696,538.823,0.0
53574.0,STARLINK-4559,PAYLOAD,2023-11-04 08:48:41,15.08844812,0.0001535,53.2154,298.0149,95.0332,265.0835,0.00015609,2.197e-05,0.0,0 STARLINK-4559,1 53574U 22101AZ  23308.36714542  .00002197  00000-0  15609-3 0  9991,2 53574  53.2154 298.0149 0001535  95.0332 265.0835 15.08844812 67176,6917.866,95.437,540.793,538.669,0.0
53574.0,STARLINK-4559,PAYLOAD,2023-11-04 16:45:37,15.08837991,0.0001584,53.2166,296.5265,91.8528,268.2645,-8.9368e-05,-1.71e-05,0.0,0 STARLINK-4559,1 53574U 22101AZ  23308.69834869 -.00001710  00000-0 -89368-4 0  9998,2 53574  53.2166 296.5265 0001584  91.8528 268.2645 15.08837991 67226,6917.887,95.438,540.847,538.656,0.0
53574.0,STARLINK-4559,PAYLOAD,2023-11-04 23:07:10,15.0883552,0.0001589,53.2159,295.3368,94.3343,265.7831,7.0679e-05,8.37e-06,0.0,0 STARLINK-4559,1 53574U 22101AZ  23308.96331206  .00000837  00000-0  70679-4 0  9997,2 53574  53.2159 295.3368 0001589  94.3343 265.7831 15.08835520 67266,6917.894,95.438,540.858,538.66,0.0
53574.0,STARLINK-4559,PAYLOAD,2023-11-05 08:39:28,15.08856373,0.0001614,53.2152,293.5537,97.3271,262.7905,0.00046121,7.063e-05,0.0,0 STARLINK-4559,1 53574U 22101AZ  23309.36074542  .00007063  00000-0  46121-3 0  9991,2 53574  53.2152 293.5537 0001614  97.3271 262.7905 15.08856373 67324,6917.83,95.437,540.812,538.579,0.0
53574.0,STARLINK-4559,PAYLOAD,2023-11-05 16:36:24,15.0884592,0.0001791,53.2163,292.0662,98.4489,261.6706,0.00029707,4.444e-05,0.0,0 STARLINK-4559,1 53574U 22101AZ  23309.69194815  .00004444  00000-0  29707-3 0  9994,2 53574  53.2163 292.0662 0001791  98.4489 261.6706 15.08845920 67376,6917.862,95.437,540.966,538.488,0.0
53574.0,STARLINK-4559,PAYLOAD,2023-11-06 03:44:05,15.08871047,0.0001645,53.2161,289.988,81.7794,278.3385,0.00081364,0.00012696,0.0,0 STARLINK-4559,1 53574U 22101AZ  23310.15561903  .00012696  00000-0  81364-3 0  9998,2 53574  53.2161 289.9880 0001645  81.7794 278.3385 15.08871047 67448,6917.785,95.436,540.788,538.513,0.0
53574.0,STARLINK-4559,PAYLOAD,2023-11-06 08:30:14,15.08906079,0.0001887,53.2172,289.0926,103.1737,256.9466,0.0020422,0.00032423,0.0,0 STARLINK-4559,1 53574U 22101AZ  23310.35432928  .00032423  00000-0  20422-2 0  9991,2 53574  53.2172 289.0926 0001887 103.1737 256.9466 15.08906079 67475,6917.678,95.433,540.849,538.238,0.0
53574.0,STARLINK-4559,PAYLOAD,2023-11-07 03:34:52,15.08829041,0.0001277,53.2162,285.5261,129.9939,230.1165,0.0014941,0.00023563,0.0,0 STARLINK-4559,1 53574U 22101AZ  23311.14922440  .00023563  00000-0  14941-2 0  9996,2 53574  53.2162 285.5261 0001277 129.9939 230.1165 15.08829041 67596,6917.914,95.438,540.662,538.895,0.0
53574.0,STARLINK-4559,PAYLOAD,2023-11-07 08:21:02,15.08825276,9.99e-05,53.2169,284.6342,97.7121,262.3985,0.0014216,0.000224,0.0,0 STARLINK-4559,1 53574U 22101AZ  23311.34794926  .00022400  00000-0  14216-2 0  9998,2 53574  53.2169 284.6342 0000999  97.7121 262.3985 15.08825276 67625,6917.925,95.438,540.481,539.099,0.0
53574.0,STARLINK-4559,PAYLOAD,2023-11-08 05:01:04,15.08845097,9.47e-05,53.2163,280.7687,93.9539,266.1562,0.0013895,0.00021898,0.0,0 STARLINK-4559,1 53574U 22101AZ  23312.20907644  .00021898  00000-0  13895-2 0  9999,2 53574  53.2163 280.7687 0000947  93.9539 266.1562 15.08845097 67752,6917.865,95.437,540.385,539.075,0.0
53574.0,STARLINK-4559,PAYLOAD,2023-11-08 08:11:50,15.08853427,9.75e-05,53.2158,280.1737,87.606,272.5043,0.0014271,0.00022506,0.0,0 STARLINK-4559,1 53574U 22101AZ  23312.34155496  .00022506  00000-0  14271-2 0  9990,2 53574  53.2158 280.1737 0000975  87.6060 272.5043 15.08853427 67779,6917.839,95.437,540.379,539.03,0.0
53574.0,STARLINK-4559,PAYLOAD,2023-11-09 03:16:27,15.08858506,0.0001072,53.2159,276.6043,112.9831,247.1274,0.00094366,0.0001477,0.0,0 STARLINK-4559,1 53574U 22101AZ  23313.13643182  .00014770  00000-0  94366-3 0  9990,2 53574  53.2159 276.6043 0001072 112.9831 247.1274 15.08858506 67897,6917.824,95.436,540.43,538.947,0.0
53574.0,STARLINK-4559,PAYLOAD,2023-11-09 06:27:13,15.08867719,0.000106,53.216,276.0078,105.9893,254.1216,0.0010667,0.00016742,0.0,0 STARLINK-4559,1 53574U 22101AZ  23313.26890884  .00016742  00000-0  10667-2 0  9999,2 53574  53.2160 276.0078 0001060 105.9893 254.1216 15.08867719 67911,6917.796,95.436,540.394,538.927,0.0
53574.0,STARLINK-4559,PAYLOAD,2023-11-10 04:42:38,15.08845942,0.000141,53.2151,271.8468,98.5259,261.5893,0.00055745,8.596e-05,0.0,0 STARLINK-4559,1 53574U 22101AZ  23314.19627360  .00008596  00000-0  55745-3 0  9994,2 53574  53.2151 271.8468 0001410  98.5259 261.5893 15.08845942 68052,6917.862,95.437,540.703,538.752,0.0
53574.0,STARLINK-4559,PAYLOAD,2023-11-10 06:18:01,15.08844033,0.0001242,53.2149,271.5496,105.3141,254.7989,0.00050086,7.693e-05,0.0,0 STARLINK-4559,1 53574U 22101AZ  23314.26251350  .00007693  00000-0  50086-3 0  9994,2 53574  53.2149 271.5496 0001242 105.3141 254.7989 15.08844033 68068,6917.868,95.437,540.592,538.874,0.0
53574.0,STARLINK-4559,PAYLOAD,2023-11-11 02:58:02,15.08840654,0.0001452,53.215,267.6852,104.2822,255.8331,0.00023631,3.475e-05,0.0,0 STARLINK-4559,1 53574U 22101AZ  23315.12363592  .00003475  00000-0  23631-3 0  9992,2 53574  53.2150 267.6852 0001452 104.2822 255.8331 15.08840654 68191,6917.878,95.438,540.748,538.739,0.0
53574.0,STARLINK-4559,PAYLOAD,2023-11-11 14:05:44,15.0883852,0.0001353,53.2149,265.6014,86.5838,273.5309,0.0002799,4.169e-05,0.0,0 STARLINK-4559,1 53574U 22101AZ  23315.58731753  .00004169  00000-0  27990-3 0  9993,2 53574  53.2149 265.6014 0001353  86.5838 273.5309 15.08838520 68265,6917.885,95.438,540.686,538.814,0.0
53574.0,STARLINK-4559,PAYLOAD,2023-11-11 20:27:17,15.08839339,0.000162,53.2157,264.4151,81.5993,278.5183,0.00019449,2.809e-05,0.0,0 STARLINK-4559,1 53574U 22101AZ  23315.85228012  .00002809  00000-0  19449-3 0  9991,2 53574  53.2157 264.4151 0001620  81.5993 278.5183 15.08839339 68306,6917.882,95.438,540.868,538.627,0.0
53574.0,STARLINK-4559,PAYLOAD,2023-11-12 02:48:49,15.08837352,0.0001334,53.2148,263.2244,87.6185,272.496,0.0001047,1.379e-05,0.0,0 STARLINK-4559,1 53574U 22101AZ  23316.11723992  .00001379  00000-0  10470-3 0  9994,2 53574  53.2148 263.2244 0001334  87.6185 272.4960 15.08837352 68341,6917.888,95.438,540.676,538.831,0.0
53574.0,STARLINK-4559,PAYLOAD,2023-11-12 13:56:31,15.08843419,0.0001434,53.2157,261.1425,91.8185,268.2972,0.0002261,3.313e-05,0.0,0 STARLINK-4559,1 53574U 22101AZ  23316.58091896  .00003313  00000-0  22610-3 0  9995,2 53574  53.2157 261.1425 0001434  91.8185 268.2972 15.08843419 68412,6917.87,95.437,540.727,538.743,0.0
